{
  "norad_id": 59699,
  "name": "STARLINK-32102",
  "history": [
    {
      "epoch": "2026-03-28T21:54:36.516960Z",
      "apogee_km": 483.76673585752906,
      "perigee_km": 482.113902331359,
      "latitude_deg": 2.4662823755611282e-05,
      "longitude_deg": 156.22311874465427,
      "height_km": 482.61529059612576,
      "semi_major_axis_km": 6861.077319094444,
      "eccentricity": 0.00012045,
      "inclination_deg": 43.0017,
      "raan_deg": 311.2018,
      "arg_perigee_deg": 277.0727,
      "mean_anomaly_deg": 82.9988,
      "mean_motion_rev_day": 15.27616328
    },
    {
      "epoch": "2026-03-28T23:28:45.799104Z",
      "apogee_km": 483.9472743436081,
      "perigee_km": 481.9301180889215,
      "latitude_deg": -9.136165008852628e-06,
      "longitude_deg": 132.25176047280513,
      "height_km": 482.5615251954336,
      "semi_major_axis_km": 6861.075696216265,
      "eccentricity": 0.000147,
      "inclination_deg": 43.0016,
      "raan_deg": 310.8336,
      "arg_perigee_deg": 278.7894,
      "mean_anomaly_deg": 81.2791,
      "mean_motion_rev_day": 15.2761687
    },
    {
      "epoch": "2026-03-29T23:01:06.698784Z",
      "apogee_km": 483.3876731361988,
      "perigee_km": 482.543208647774,
      "latitude_deg": -1.8438313575983144e-05,
      "longitude_deg": 132.65815095501296,
      "height_km": 482.7634691510309,
      "semi_major_axis_km": 6861.102440891987,
      "eccentricity": 6.154e-05,
      "inclination_deg": 43.0055,
      "raan_deg": 305.2938,
      "arg_perigee_deg": 267.0935,
      "mean_anomaly_deg": 92.9846,
      "mean_motion_rev_day": 15.27607938
    },
    {
      "epoch": "2026-03-30T14:42:39.597984Z",
      "apogee_km": 483.1963401422445,
      "perigee_km": 482.60423262443055,
      "latitude_deg": 3.259354297499242e-05,
      "longitude_deg": -107.06374081779789,
      "height_km": 482.38546650608515,
      "semi_major_axis_km": 6861.037286383337,
      "eccentricity": 4.315e-05,
      "inclination_deg": 42.9966,
      "raan_deg": 301.6034,
      "arg_perigee_deg": 348.3639,
      "mean_anomaly_deg": 11.7203,
      "mean_motion_rev_day": 15.27629698
    },
    {
      "epoch": "2026-03-30T22:33:26.582400Z",
      "apogee_km": 484.31015648674656,
      "perigee_km": 481.75382214470665,
      "latitude_deg": -2.6048868990621564e-06,
      "longitude_deg": 133.0676140554703,
      "height_km": 482.69252095126063,
      "semi_major_axis_km": 6861.168989315726,
      "eccentricity": 0.00018629,
      "inclination_deg": 43.0026,
      "raan_deg": 299.7528,
      "arg_perigee_deg": 275.2448,
      "mean_anomaly_deg": 84.8191,
      "mean_motion_rev_day": 15.27585713
    }
  ]
}